[{"OBJECT_NAME":"KUIPER-00051","OBJECT_ID":"2025-134M","EPOCH":"2026-03-09T14:55:00.456384","MEAN_MOTION":14.83775882,"ECCENTRICITY":6.43e-5,"INCLINATION":51.9006,"RA_OF_ASC_NODE":226.0794,"ARG_OF_PERICENTER":101.5972,"MEAN_ANOMALY":258.5064,"EPHEMERIS_TYPE":0,"CLASSIFICATION_TYPE":"U","NORAD_CAT_ID":64511,"ELEMENT_SET_NO":999,"REV_AT_EPOCH":4016,"BSTAR":0.00067322,"MEAN_MOTION_DOT":5.404e-5,"MEAN_MOTION_DDOT":0},{"OBJECT_NAME":"CZ-2D R\/B","OBJECT_ID":"2013-018E","EPOCH":"2026-03-09T22:07:02.756352","MEAN_MOTION":14.813709,"ECCENTRICITY":0.00175607,"INCLINATION":98.4225,"RA_OF_ASC_NODE":36.6435,"ARG_OF_PERICENTER":13.9379,"MEAN_ANOMALY":346.2313,"EPHEMERIS_TYPE":0,"CLASSIFICATION_TYPE":"U","NORAD_CAT_ID":39154,"ELEMENT_SET_NO":999,"REV_AT_EPOCH":69341,"BSTAR":0.00023383989,"MEAN_MOTION_DOT":1.773e-5,"MEAN_MOTION_DDOT":0}]
